{
  "schema": "int-temerity-real-tle-snapshot/v1",
  "source": "celestrak",
  "group": "STARLINK",
  "format": "celestrak-gp-json",
  "source_url": "https://celestrak.org/NORAD/elements/gp.php?NAME=STARLINK&FORMAT=JSON",
  "downloaded_at": "2026-06-26T09:50:33.467Z",
  "generated_at": "2026-06-26T09:50:44.363Z",
  "fingerprint": "77a8ac15",
  "shell_id": "starlink-real-43deg-490km",
  "catalog_count": 10658,
  "shell_count": 3264,
  "selected_count": 1584,
  "mean_altitude_km": 490.2,
  "mean_inclination_deg": 43.0017,
  "mean_mean_motion_rev_per_day": 15.27576648,
  "layout": {
    "planes": 72,
    "satellites_per_plane": 22,
    "selection_strategy": "largest-shell-raan-clusters-even-slot-sampling",
    "raan_cluster_threshold_deg": 1.5
  },
  "satellites": [
    {
      "satellite_id": "P69-S11",
      "norad_id": 67407,
      "satellite_name": "STARLINK-36510",
      "cospar_id": "2026-005D",
      "shell_id": "starlink-real-43deg-490km",
      "plane_id": 68,
      "slot_id": 10,
      "epoch": "2026-06-25T19:46:31.590336",
      "inclination": 43.0014,
      "raan": 347.3533,
      "eccentricity": 0.0001366,
      "argument_of_perigee": 266.51430000000005,
      "mean_anomaly": 93.55520000000001,
      "mean_motion": 15.27599099,
      "bstar": 0.00073953,
      "status": "active",
      "raw_omm": {
        "OBJECT_NAME": "STARLINK-36510",
        "OBJECT_ID": "2026-005D",
        "EPOCH": "2026-06-25T19:46:31.590336",
        "MEAN_MOTION": 15.27599099,
        "ECCENTRICITY": 0.0001366,
        "INCLINATION": 43.0014,
        "RA_OF_ASC_NODE": 347.3533,
        "ARG_OF_PERICENTER": 266.5143,
        "MEAN_ANOMALY": 93.5552,
        "EPHEMERIS_TYPE": 0,
        "CLASSIFICATION_TYPE": "U",
        "NORAD_CAT_ID": 67407,
        "ELEMENT_SET_NO": 999,
        "REV_AT_EPOCH": 2523,
        "BSTAR": 0.00073953,
        "MEAN_MOTION_DOT": 0.00020155,
        "MEAN_MOTION_DDOT": 0
      },
      "source": "celestrak",
      "source_url": "https://celestrak.org/NORAD/elements/gp.php?NAME=STARLINK&FORMAT=JSON",
      "catalog_fingerprint": "77a8ac15"
    },
    {
      "satellite_id": "P69-S12",
      "norad_id": 57366,
      "satellite_name": "STARLINK-6174",
      "cospar_id": "2023-099AQ",
      "shell_id": "starlink-real-43deg-490km",
      "plane_id": 68,
      "slot_id": 11,
      "epoch": "2026-06-26T04:35:44.183904",
      "inclination": 43.0038,
      "raan": 348.8837,
      "eccentricity": 0.0001203,
      "argument_of_perigee": 276.19759999999997,
      "mean_anomaly": 83.87389999999999,
      "mean_motion": 15.27579955,
      "bstar": -0.0000082903,
      "status": "active",
      "raw_omm": {
        "OBJECT_NAME": "STARLINK-6174",
        "OBJECT_ID": "2023-099AQ",
        "EPOCH": "2026-06-26T04:35:44.183904",
        "MEAN_MOTION": 15.27579955,
        "ECCENTRICITY": 0.0001203,
        "INCLINATION": 43.0038,
        "RA_OF_ASC_NODE": 348.8837,
        "ARG_OF_PERICENTER": 276.1976,
        "MEAN_ANOMALY": 83.8739,
        "EPHEMERIS_TYPE": 0,
        "CLASSIFICATION_TYPE": "U",
        "NORAD_CAT_ID": 57366,
        "ELEMENT_SET_NO": 999,
        "REV_AT_EPOCH": 16279,
        "BSTAR": -0.0000082903,
        "MEAN_MOTION_DOT": -0.0000049,
        "MEAN_MOTION_DDOT": 0
      },
      "source": "celestrak",
      "source_url": "https://celestrak.org/NORAD/elements/gp.php?NAME=STARLINK&FORMAT=JSON",
      "catalog_fingerprint": "77a8ac15"
    },
    {
      "satellite_id": "P69-S13",
      "norad_id": 67429,
      "satellite_name": "STARLINK-36513",
      "cospar_id": "2026-005AB",
      "shell_id": "starlink-real-43deg-490km",
      "plane_id": 68,
      "slot_id": 12,
      "epoch": "2026-06-25T21:00:22.006080",
      "inclination": 43.0024,
      "raan": 346.8674,
      "eccentricity": 0.0001118,
      "argument_of_perigee": 282.24890000000005,
      "mean_anomaly": 77.82370000000003,
      "mean_motion": 15.27587716,
      "bstar": 0.0014292,
      "status": "active",
      "raw_omm": {
        "OBJECT_NAME": "STARLINK-36513",
        "OBJECT_ID": "2026-005AB",
        "EPOCH": "2026-06-25T21:00:22.006080",
        "MEAN_MOTION": 15.27587716,
        "ECCENTRICITY": 0.0001118,
        "INCLINATION": 43.0024,
        "RA_OF_ASC_NODE": 346.8674,
        "ARG_OF_PERICENTER": 282.2489,
        "MEAN_ANOMALY": 77.8237,
        "EPHEMERIS_TYPE": 0,
        "CLASSIFICATION_TYPE": "U",
        "NORAD_CAT_ID": 67429,
        "ELEMENT_SET_NO": 999,
        "REV_AT_EPOCH": 2523,
        "BSTAR": 0.0014292,
        "MEAN_MOTION_DOT": 0.00039285,
        "MEAN_MOTION_DDOT": 0
      },
      "source": "celestrak",
      "source_url": "https://celestrak.org/NORAD/elements/gp.php?NAME=STARLINK&FORMAT=JSON",
      "catalog_fingerprint": "77a8ac15"
    },
    {
      "satellite_id": "P69-S14",
      "norad_id": 61857,
      "satellite_name": "STARLINK-32451",
      "cospar_id": "2024-202N",
      "shell_id": "starlink-real-43deg-490km",
      "plane_id": 68,
      "slot_id": 13,
      "epoch": "2026-06-25T11:37:16.450752",
      "inclination": 43.0039,
      "raan": 349.2044000000001,
      "eccentricity": 0.0001092,
      "argument_of_perigee": 256.11660000000006,
      "mean_anomaly": 103.95640000000003,
      "mean_motion": 15.27548919,
      "bstar": 0.00028705,
      "status": "active",
      "raw_omm": {
        "OBJECT_NAME": "STARLINK-32451",
        "OBJECT_ID": "2024-202N",
        "EPOCH": "2026-06-25T11:37:16.450752",
        "MEAN_MOTION": 15.27548919,
        "ECCENTRICITY": 0.0001092,
        "INCLINATION": 43.0039,
        "RA_OF_ASC_NODE": 349.2044,
        "ARG_OF_PERICENTER": 256.1166,
        "MEAN_ANOMALY": 103.9564,
        "EPHEMERIS_TYPE": 0,
        "CLASSIFICATION_TYPE": "U",
        "NORAD_CAT_ID": 61857,
        "ELEMENT_SET_NO": 999,
        "REV_AT_EPOCH": 9182,
        "BSTAR": 0.00028705,
        "MEAN_MOTION_DOT": 0.00007638,
        "MEAN_MOTION_DDOT": 0
      },
      "source": "celestrak",
      "source_url": "https://celestrak.org/NORAD/elements/gp.php?NAME=STARLINK&FORMAT=JSON",
      "catalog_fingerprint": "77a8ac15"
    },
    {
      "satellite_id": "P69-S15",
      "norad_id": 57363,
      "satellite_name": "STARLINK-6356",
      "cospar_id": "2023-099AM",
      "shell_id": "starlink-real-43deg-490km",
      "plane_id": 68,
      "slot_id": 14,
      "epoch": "2026-06-26T03:58:44.048640",
      "inclination": 43.0026,
      "raan": 348.6912,
      "eccentricity": 0.0001067,
      "argument_of_perigee": 258.669,
      "mean_anomaly": 101.4042,
      "mean_motion": 15.27573196,
      "bstar": 0.000034354,
      "status": "active",
      "raw_omm": {
        "OBJECT_NAME": "STARLINK-6356",
        "OBJECT_ID": "2023-099AM",
        "EPOCH": "2026-06-26T03:58:44.048640",
        "MEAN_MOTION": 15.27573196,
        "ECCENTRICITY": 0.0001067,
        "INCLINATION": 43.0026,
        "RA_OF_ASC_NODE": 348.6912,
        "ARG_OF_PERICENTER": 258.669,
        "MEAN_ANOMALY": 101.4042,
        "EPHEMERIS_TYPE": 0,
        "CLASSIFICATION_TYPE": "U",
        "NORAD_CAT_ID": 57363,
        "ELEMENT_SET_NO": 999,
        "REV_AT_EPOCH": 16279,
        "BSTAR": 0.000034354,
        "MEAN_MOTION_DOT": 0.00000683,
        "MEAN_MOTION_DDOT": 0
      },
      "source": "celestrak",
      "source_url": "https://celestrak.org/NORAD/elements/gp.php?NAME=STARLINK&FORMAT=JSON",
      "catalog_fingerprint": "77a8ac15"
    },
    {
      "satellite_id": "P69-S16",
      "norad_id": 67418,
      "satellite_name": "STARLINK-36455",
      "cospar_id": "2026-005Q",
      "shell_id": "starlink-real-43deg-490km",
      "plane_id": 68,
      "slot_id": 15,
      "epoch": "2026-06-25T11:50:12.078240",
      "inclination": 43.0007,
      "raan": 349.1622,
      "eccentricity": 0.0000972,
      "argument_of_perigee": 277.41869999999994,
      "mean_anomaly": 82.65539999999999,
      "mean_motion": 15.27591467,
      "bstar": 0.00095592,
      "status": "active",
      "raw_omm": {
        "OBJECT_NAME": "STARLINK-36455",
        "OBJECT_ID": "2026-005Q",
        "EPOCH": "2026-06-25T11:50:12.078240",
        "MEAN_MOTION": 15.27591467,
        "ECCENTRICITY": 0.0000972,
        "INCLINATION": 43.0007,
        "RA_OF_ASC_NODE": 349.1622,
        "ARG_OF_PERICENTER": 277.4187,
        "MEAN_ANOMALY": 82.6554,
        "EPHEMERIS_TYPE": 0,
        "CLASSIFICATION_TYPE": "U",
        "NORAD_CAT_ID": 67418,
        "ELEMENT_SET_NO": 999,
        "REV_AT_EPOCH": 2518,
        "BSTAR": 0.00095592,
        "MEAN_MOTION_DOT": 0.00026145,
        "MEAN_MOTION_DDOT": 0
      },
      "source": "celestrak",
      "source_url": "https://celestrak.org/NORAD/elements/gp.php?NAME=STARLINK&FORMAT=JSON",
      "catalog_fingerprint": "77a8ac15"
    }
  ]
}