STARLINK-6356           
1 57363U 23099AM  26177.16578760  .00000683  00000+0  34354-4 0  9999
2 57363  43.0026 348.6912 0001067 258.6690 101.4042 15.27573196162797
STARLINK-6174           
1 57366U 23099AQ  26177.19148361 -.00000490  00000+0 -82903-5 0  9997
2 57366  43.0038 348.8837 0001203 276.1976  83.8739 15.27579955162790
STARLINK-32451          
1 61857U 24202N   26176.48421818  .00007638  00000+0  28705-3 0  9993
2 61857  43.0039 349.2044 0001092 256.1166 103.9564 15.27548919 91822
STARLINK-36510          
1 67407U 26005D   26176.82397674  .00020155  00000+0  73953-3 0  9997
2 67407  43.0014 347.3533 0001366 266.5143  93.5552 15.27599099 25236
STARLINK-36455          
1 67418U 26005Q   26176.49319535  .00026145  00000+0  95592-3 0  9990
2 67418  43.0007 349.1622 0000972 277.4187  82.6554 15.27591467 25186
STARLINK-36513          
1 67429U 26005AB  26176.87525470  .00039285  00000+0  14292-2 0  9997
2 67429  43.0024 346.8674 0001118 282.2489  77.8237 15.27587716 25232
